MALLIGYONG-1            
1 58400U 23179A   24176.94429758  .00005033  00000+0  22901-3 0  9994
2 58400  97.4026  63.6621 0003057 130.5379 229.6124 15.21155411 32900
